0 FENGYUN 1C DEB
1 30243U 99025XC  13282.56171461  .00000531  00000-0  33481-3 0  8084
2 30243 099.0387 286.6600 0014742 067.5169 055.7385 14.08623485346085
0 FENGYUN 1C DEB
1 30243U 99025XC  13283.96975686  .00000493  00000-0  31270-3 0  8092
2 30243 099.0385 288.0712 0014687 063.8161 355.7411 14.08625873346280
0 FENGYUN 1C DEB
1 30243U 99025XC  13285.54461237  .00000286  00000-0  19206-3 0  8107
2 30243 099.0383 289.6495 0014654 059.6431 061.6781 14.08629037346504
0 FENGYUN 1C DEB
1 30243U 99025XC  13287.02550700  .00000250  00000-0  17145-3 0  8118
2 30243 099.0381 291.1337 0014598 055.6492 011.2349 14.08630878346714
0 FENGYUN 1C DEB
1 30243U 99025XC  13288.59907142  .00000298  00000-0  19901-3 0  8122
2 30243 099.0381 292.7106 0014583 051.4479 070.6885 14.08632593346932
0 FENGYUN 1C DEB
1 30243U 99025XC  13289.93623742  .00000324  00000-0  21432-3 0  8135
2 30243 099.0381 294.0506 0014505 047.7897 011.4787 14.08633181347127
0 FENGYUN 1C DEB
1 30243U 99025XC  13291.51711441  .00000469  00000-0  29840-3 0  8148
2 30243 099.0384 295.6347 0014416 043.5011 108.1023 14.08633436347347
0 FENGYUN 1C DEB
1 30243U 99025XC  13292.98940512  .00000656  00000-0  40742-3 0  8156
2 30243 099.0385 297.1100 0014354 039.4574 014.1388 14.08633717347556
0 FENGYUN 1C DEB
1 30243U 99025XC  13294.84952668  .00000734  00000-0  45268-3 0  8164
2 30243 099.0386 298.9742 0014270 034.4066 086.8205 14.08636001347818
0 FENGYUN 1C DEB
1 30243U 99025XC  13295.90540742  .00000689  00000-0  42607-3 0  8172
2 30243 099.0386 300.0324 0014223 031.5005 041.2367 14.08637916347964
